Assessing Data through a Flask Application:

The homework4 directory consists of one Python3 file: iss_tracker.py.

The iss_tracker.py file queries and returns information from an International Space Station (ISS) data set that consists of interesting positional and velocity data. The data set contains ISS state vectors over an approximate 15 day period with Cartesian vectors for both position and velocity as well as a time stamp (EPOCH). The frame of reference for these vectors is Earth, based on the J2000 reference frame.

The Flask application loads in the data from a link: https://spotthestation.nasa.gov/trajectory_data.cfm. This link contains .txt and .xml format of the latest generated ISS trajectory data (called an ephemeris), generated by the ISS Trajectory Operations and Planning Officer (TOPO) fligh controls in the Mission Control Center at NASA's Johnson Space Center. End users can then use routes to return specific information from the data set (using "/". "/epochs", "/epochs/<epoch>". and "epochs/,epoch./speed").

In order to run the code, run the Flask application through one ssh terminal and then query it through another ssh terminal. 

To run the Flask application, insert the following on the command line: flask --app iss_tracker --debug run

To query the Flask application, inserting the following on the command line (depending on what information you would like to see):
1) curl http://127.0.0.1:5000/ (to return the entire data set)
2) curl http://127.0.0.1:5000/epochs (to return a list of all Epochs in the data set)
3) curl http://127.0.0.1:5000/epochs/<epoch> (to return state vectors of a specific Epoch from the data set)
4) curl http://127.0.0.1:5000/epochs/<epoch>/speed (to return the value of the instantaneous speed for a specific Epoch from the data set)

Example Output:

$ curl http://127.0.0.1:5000/

{
  "ndm": {
    "oem": {
      "@id": "CCSDS_OEM_VERS",
      "@version": "2.0",
      "body": {
        "segment": {
          "data": {
            "COMMENT": [
              "Units are in kg and m^2",
              "MASS=460724.00",
              "DRAG_AREA=1742.80",
              "DRAG_COEFF=3.25",
              "SOLAR_RAD_AREA=0.00",
              "SOLAR_RAD_COEFF=0.00",
              "Orbits start at the ascending node epoch",
.
.
.
	     "stateVector": [
               {
                 "EPOCH": "2023-048T12:00:00.000Z",
                 "X": {
                   "#text": "-5097.51711371908",
                   "@units": "km"
                 },
                 "X_DOT": {
                   "#text": "-4.5815461024513304",
                   "@units": "km/s"
                 },
                 "Y": {
                   "#text": "1610.3574036042901",
                   "@units": "km"
                 },
                 "Y_DOT": {
                   "#text": "-4.8951801207083303",
                   "@units": "km/s"
                 },
                 "Z": {
                   "#text": "-4194.4848049601396",
                   "@units": "km"
                 },
                 "Z_DOT": {
                   "#text": "3.70067961081915",
                   "@units": "km/s"
                 }
              } ,
.
.
.
}

$ http://127.0.0.1:5000/epochs

[
  "2023-048T12:00:00.000Z",
  "2023-048T12:04:00.000Z",
  "2023-048T12:08:00.000Z",
  "2023-048T12:12:00.000Z",
  "2023-048T12:16:00.000Z",
  "2023-048T12:20:00.000Z",
  "2023-048T12:24:00.000Z",
  "2023-048T12:28:00.000Z",
  "2023-048T12:32:00.000Z",
  "2023-048T12:36:00.000Z",
  "2023-048T12:40:00.000Z",
  "2023-048T12:44:00.000Z",
  "2023-048T12:48:00.000Z",
  "2023-048T12:52:00.000Z",
  "2023-048T12:56:00.000Z",
  "2023-048T13:00:00.000Z",
  "2023-048T13:04:00.000Z",
  "2023-048T13:08:00.000Z",
  "2023-048T13:12:00.000Z",
  "2023-048T13:16:00.000Z",
  "2023-048T13:20:00.000Z",
  "2023-048T13:24:00.000Z",
  "2023-048T13:28:00.000Z",
  "2023-048T13:32:00.000Z",
.
.
.
]

$ curl http://127.0.0.1:5000/epochs/2023-063T12:00:00.000Z

{
  "EPOCH": "2023-063T12:00:00.000Z",
  "X": {
    "#text": "2820.04422055639",
    "@units": "km"
  },
  "X_DOT": {
    "#text": "5.0375825820999403",
    "@units": "km/s"
  },
  "Y": {
    "#text": "-5957.89709645725",
    "@units": "km"
  },
  "Y_DOT": {
    "#text": "0.78494316057540003",
    "@units": "km/s"
  },
  "Z": {
    "#text": "1652.0698653803699",
    "@units": "km"
  },
  "Z_DOT": {
    "#text": "-5.7191913150960803",
    "@units": "km/s"
  }
}

$ curl http://127.0.0.1:5000/epochs/2023-063T12:00:00.000Z/speed

7.661757196327827
